[
    {
        "Altitude(m)": 704900.5716459721,
        "Argument of Periapsis(deg)": 0.004556048474650827,
        "Eccentricity": 0.0,
        "Inclination(deg)": 45.0,
        "Latitude(deg)": -8.382783941918154,
        "Longitude(deg)": -148.71918913746597,
        "Mean Anomaly(deg)": -11.750313341007697,
        "RAAN(deg)": 319.9956992234167,
        "Satellite Name": "Constellation 1 1429",
        "Satellite Number": 1429,
        "Semi-Major Axis(m)": 7083131.272910544,
        "Time(s)": 76
    },
    {
        "Altitude(m)": 704891.1873319194,
        "Argument of Periapsis(deg)": 0.004615996480896233,
        "Eccentricity": 0.0,
        "Inclination(deg)": 45.0,
        "Latitude(deg)": -8.340056885895988,
        "Longitude(deg)": -148.6795365472342,
        "Mean Anomaly(deg)": -11.68961220075786,
        "RAAN(deg)": 319.99564263425117,
        "Satellite Name": "Constellation 1 1429",
        "Satellite Number": 1429,
        "Semi-Major Axis(m)": 7083131.272910544,
        "Time(s)": 77
    },
    {
        "Altitude(m)": 704881.820711929,
        "Argument of Periapsis(deg)": 0.004675944487141638,
        "Eccentricity": 0.0,
        "Inclination(deg)": 45.0,
        "Latitude(deg)": -8.297324825572481,
        "Longitude(deg)": -148.63989336720752,
        "Mean Anomaly(deg)": -11.628911060507924,
        "RAAN(deg)": 319.9955860450856,
        "Satellite Name": "Constellation 1 1429",
        "Satellite Number": 1429,
        "Semi-Major Axis(m)": 7083131.272910544,
        "Time(s)": 78
    },
    {
        "Altitude(m)": 704872.4718098342,
        "Argument of Periapsis(deg)": 0.004735892493387044,
        "Eccentricity": 0.0,
        "Inclination(deg)": 45.0,
        "Latitude(deg)": -8.254587787537027,
        "Longitude(deg)": -148.6002595471933,
        "Mean Anomaly(deg)": -11.568209920257987,
        "RAAN(deg)": 319.99552945591995,
        "Satellite Name": "Constellation 1 1429",
        "Satellite Number": 1429,
        "Semi-Major Axis(m)": 7083131.272910544,
        "Time(s)": 79
    },
    {
        "Altitude(m)": 704863.1406493624,
        "Argument of Periapsis(deg)": 0.004795840499632449,
        "Eccentricity": 0.0,
        "Inclination(deg)": 45.0,
        "Latitude(deg)": -8.211845798361551,
        "Longitude(deg)": -148.5606350370188,
        "Mean Anomaly(deg)": -11.507508780008152,
        "RAAN(deg)": 319.9954728667544,
        "Satellite Name": "Constellation 1 1429",
        "Satellite Number": 1429,
        "Semi-Major Axis(m)": 7083131.272910544,
        "Time(s)": 80
    },
    {
        "Altitude(m)": 704853.8272541628,
        "Argument of Periapsis(deg)": 0.004855788505877855,
        "Eccentricity": 0.0,
        "Inclination(deg)": 45.0,
        "Latitude(deg)": -8.16909888460022,
        "Longitude(deg)": -148.52101978653002,
        "Mean Anomaly(deg)": -11.446807639758214,
        "RAAN(deg)": 319.99541627758884,
        "Satellite Name": "Constellation 1 1429",
        "Satellite Number": 1429,
        "Semi-Major Axis(m)": 7083131.272910544,
        "Time(s)": 81
    },
    {
        "Altitude(m)": 704844.5316478045,
        "Argument of Periapsis(deg)": 0.00491573651212326,
        "Eccentricity": 0.0,
        "Inclination(deg)": 45.0,
        "Latitude(deg)": -8.126347072789796,
        "Longitude(deg)": -148.48141391368947,
        "Mean Anomaly(deg)": -11.386106499508326,
        "RAAN(deg)": 319.9953596884233,
        "Satellite Name": "Constellation 1 1429",
        "Satellite Number": 1429,
        "Semi-Major Axis(m)": 7083131.272910544,
        "Time(s)": 82
    },
    {
        "Altitude(m)": 704835.2538537642,
        "Argument of Periapsis(deg)": 0.004975684518368666,
        "Eccentricity": 0.0,
        "Inclination(deg)": 45.0,
        "Latitude(deg)": -8.08359038945036,
        "Longitude(deg)": -148.4418170321876,
        "Mean Anomaly(deg)": -11.325405359258442,
        "RAAN(deg)": 319.99530309925774,
        "Satellite Name": "Constellation 1 1429",
        "Satellite Number": 1429,
        "Semi-Major Axis(m)": 7083131.272910544,
        "Time(s)": 83
    },
    {
        "Altitude(m)": 704825.99389544,
        "Argument of Periapsis(deg)": 0.005035632524614072,
        "Eccentricity": 0.0,
        "Inclination(deg)": 45.0,
        "Latitude(deg)": -8.040828861084014,
        "Longitude(deg)": -148.40222926002468,
        "Mean Anomaly(deg)": -11.264704219008504,
        "RAAN(deg)": 319.9952465100921,
        "Satellite Name": "Constellation 1 1429",
        "Satellite Number": 1429,
        "Semi-Major Axis(m)": 7083131.272910544,
        "Time(s)": 84
    },
    {
        "Altitude(m)": 704816.7517961445,
        "Argument of Periapsis(deg)": 0.0050955805308594785,
        "Eccentricity": 0.0,
        "Inclination(deg)": 45.0,
        "Latitude(deg)": -7.998062514176163,
        "Longitude(deg)": -148.3626505471234,
        "Mean Anomaly(deg)": -11.204003078758616,
        "RAAN(deg)": 319.9951899209266,
        "Satellite Name": "Constellation 1 1429",
        "Satellite Number": 1429,
        "Semi-Major Axis(m)": 7083131.272910544,
        "Time(s)": 85
    },
    {
        "Altitude(m)": 704807.5275791071,
        "Argument of Periapsis(deg)": 0.005155528537104883,
        "Eccentricity": 0.0,
        "Inclination(deg)": 45.0,
        "Latitude(deg)": -7.955291375195018,
        "Longitude(deg)": -148.32308084342475,
        "Mean Anomaly(deg)": -11.143301938508781,
        "RAAN(deg)": 319.995133331761,
        "Satellite Name": "Constellation 1 1429",
        "Satellite Number": 1429,
        "Semi-Major Axis(m)": 7083131.272910544,
        "Time(s)": 86
    },
    {
        "Altitude(m)": 704798.3212674647,
        "Argument of Periapsis(deg)": 0.0052154765433502885,
        "Eccentricity": 0.0,
        "Inclination(deg)": 45.0,
        "Latitude(deg)": -7.9125154705918685,
        "Longitude(deg)": -148.2835200988888,
        "Mean Anomaly(deg)": -11.082600798258843,
        "RAAN(deg)": 319.9950767425955,
        "Satellite Name": "Constellation 1 1429",
        "Satellite Number": 1429,
        "Semi-Major Axis(m)": 7083131.272910544,
        "Time(s)": 87
    },
    {
        "Altitude(m)": 704789.1328842832,
        "Argument of Periapsis(deg)": 0.005275424549595694,
        "Eccentricity": 0.0,
        "Inclination(deg)": 45.0,
        "Latitude(deg)": -7.869734826801302,
        "Longitude(deg)": -148.24396826349405,
        "Mean Anomaly(deg)": -11.021899658008856,
        "RAAN(deg)": 319.99502015342983,
        "Satellite Name": "Constellation 1 1429",
        "Satellite Number": 1429,
        "Semi-Major Axis(m)": 7083131.272910544,
        "Time(s)": 88
    },
    {
        "Altitude(m)": 704779.9624525323,
        "Argument of Periapsis(deg)": 0.0053353725558411,
        "Eccentricity": 0.0,
        "Inclination(deg)": 45.0,
        "Latitude(deg)": -7.826949470241061,
        "Longitude(deg)": -148.20442545533493,
        "Mean Anomaly(deg)": -10.96119851775907,
        "RAAN(deg)": 319.99496356426425,
        "Satellite Name": "Constellation 1 1429",
        "Satellite Number": 1429,
        "Semi-Major Axis(m)": 7083131.272910544,
        "Time(s)": 89
    },
    {
        "Altitude(m)": 704770.8099951021,
        "Argument of Periapsis(deg)": 0.005395320562086505,
        "Eccentricity": 0.0,
        "Inclination(deg)": 45.0,
        "Latitude(deg)": -7.784159427312605,
        "Longitude(deg)": -148.16489128823258,
        "Mean Anomaly(deg)": -10.900497377509135,
        "RAAN(deg)": 319.99490697509873,
        "Satellite Name": "Constellation 1 1429",
        "Satellite Number": 1429,
        "Semi-Major Axis(m)": 7083131.272910544,
        "Time(s)": 90
    },
    {
        "Altitude(m)": 704761.6755347948,
        "Argument of Periapsis(deg)": 0.00545526856833191,
        "Eccentricity": 0.0,
        "Inclination(deg)": 45.0,
        "Latitude(deg)": -7.7413647244004515,
        "Longitude(deg)": -148.12536588031807,
        "Mean Anomaly(deg)": -10.839796237259197,
        "RAAN(deg)": 319.99485038593315,
        "Satellite Name": "Constellation 1 1429",
        "Satellite Number": 1429,
        "Semi-Major Axis(m)": 7083131.272910544,
        "Time(s)": 91
    },
    {
        "Altitude(m)": 704752.5590943277,
        "Argument of Periapsis(deg)": 0.005515216574577317,
        "Eccentricity": 0.0,
        "Inclination(deg)": 45.0,
        "Latitude(deg)": -7.698565387872924,
        "Longitude(deg)": -148.08584918164388,
        "Mean Anomaly(deg)": -10.77909509700931,
        "RAAN(deg)": 319.9947937967676,
        "Satellite Name": "Constellation 1 1429",
        "Satellite Number": 1429,
        "Semi-Major Axis(m)": 7083131.272910544,
        "Time(s)": 92
    },
    {
        "Altitude(m)": 704743.4606963373,
        "Argument of Periapsis(deg)": 0.005575164580822722,
        "Eccentricity": 0.0,
        "Inclination(deg)": 45.0,
        "Latitude(deg)": -7.655761444081848,
        "Longitude(deg)": -148.0463411422801,
        "Mean Anomaly(deg)": -10.718393956759474,
        "RAAN(deg)": 319.99473720760204,
        "Satellite Name": "Constellation 1 1429",
        "Satellite Number": 1429,
        "Semi-Major Axis(m)": 7083131.272910544,
        "Time(s)": 93
    },
    {
        "Altitude(m)": 704734.3803633656,
        "Argument of Periapsis(deg)": 0.005635112587068129,
        "Eccentricity": 0.0,
        "Inclination(deg)": 45.0,
        "Latitude(deg)": -7.612952919362793,
        "Longitude(deg)": -148.0068417123154,
        "Mean Anomaly(deg)": -10.657692816509487,
        "RAAN(deg)": 319.9946806184364,
        "Satellite Name": "Constellation 1 1429",
        "Satellite Number": 1429,
        "Semi-Major Axis(m)": 7083131.272910544,
        "Time(s)": 94
    }
]